IRIDIUM 155             
1 43573U 18061E   20030.33095942  .00000082  00000-0  22229-4 0  9999
2 43573  86.3986 310.3619 0002628  76.3786 283.7702 14.34217455 79418
IRIDIUM 154             
1 43574U 18061F   20030.31193265  .00000079  00000-0  21189-4 0  9995
2 43574  86.3989 310.3932 0001984  93.1750 266.9673 14.34218448 79460
IRIDIUM 163             
1 43575U 18061G   20030.29291335  .00000080  00000-0  21560-4 0  9995
2 43575  86.3988 310.3870 0001462  74.7837 285.3521 14.34218146 79432
IRIDIUM 156             
1 43576U 18061H   20030.26752130  .00000078  00000-0  20743-4 0  9997
2 43576  86.3987 310.4022 0002036  73.1132 287.0287 14.34219300 79421
IRIDIUM 164             
1 43577U 18061J   20030.38802738  .00000069  00000-0  17752-4 0  9997
2 43577  86.3988 310.3569 0001885  89.6388 270.5024 14.34219688 79485
IRIDIUM 159             
1 43578U 18061K   20030.28656514  .00000081  00000-0  22021-4 0  9995
2 43578  86.3987 310.3849 0001987  89.4847 270.6577 14.34217911 79433
IRIDIUM 180             
1 43922U 19002A   20030.14649332  .00000050  00000-0  10627-4 0  9994
2 43922  86.3947 247.2581 0001566 115.5311 244.6046 14.34219433 55025
IRIDIUM 176             
1 43923U 19002B   20030.09007267  .00000121  00000-0  15313-4 0  9990
2 43923  86.6090 247.3009 0002071  89.1269 271.0185 14.72256118 56420
IRIDIUM 168             
1 43924U 19002C   20030.41923832  .00000048  00000-0  99029-5 0  9997
2 43924  86.3956 247.1548 0001959  98.1638 261.9780 14.34218421 55048
IRIDIUM 173             
1 43925U 19002D   20030.47633416  .00000059  00000-0  14035-4 0  9995
2 43925  86.3952 247.1146 0001904  94.1621 265.9792 14.34218309 55049
IRIDIUM 169             
1 43926U 19002E   20030.41215094  .00000080  00000-0  19519-4 0  9994
2 43926  86.4222 278.7326 0007245  87.8006 272.4022 14.38606729 55276
IRIDIUM 172             
1 43927U 19002F   20030.12114328  .00000057  00000-0  13254-4 0  9995
2 43927  86.3953 247.2636 0001829  98.0428 262.0975 14.34218174 54995
IRIDIUM 175             
1 43928U 19002G   20030.35573824  .00000125  00000-0  15931-4 0  9991
2 43928  86.6080 247.1076 0002516  81.4876 278.6627 14.72247411 56452
IRIDIUM 171             
1 43929U 19002H   20030.31141458  .00000055  00000-0  12621-4 0  9997
2 43929  86.3962 247.2315 0001956  98.3188 261.8229 14.34218695 55019
IRIDIUM 170             
1 43930U 19002J   20030.30013883  .00000119  00000-0  14913-4 0  9995
2 43930  86.6090 247.2204 0002129  80.5755 279.5703 14.72249571 56461
IRIDIUM 167             
1 43931U 19002K   20030.30507118  .00000054  00000-0  12297-4 0  9996
2 43931  86.3953 247.1887 0001650 120.6959 239.4400 14.34219212 55019
